GAOFEN-10R              
1 44622U 19066A   24323.10355313  .00002653  00000+0  34087-3 0  9995
2 44622  97.9814 264.3760 0003425 171.1675 188.9598 14.82031360277011
CARTOSAT-3              
1 44804U 19081A   24323.10515815  .00006646  00000+0  31774-3 0  9995
2 44804  97.5123  20.2703 0014512 359.5251   0.5967 15.19248576275959
GAOFEN-12 01            
1 44819U 19082A   24323.11281154  .00000907  00000+0  12404-3 0  9992
2 44819  97.8201 333.4710 0000404 211.9835 148.1353 14.80897253268854
CSG-1                   
1 44873U 19092A   24323.11905997  .00001133  00000+0  14881-3 0  9994
2 44873  97.8871 144.0530 0001365  84.6002 275.5367 14.82163154266149
NEMO-HD                 
1 46277U 20061F   24323.14367473  .00009426  00000+0  32086-3 0  9996
2 46277  97.2770  22.5096 0001110  26.1495 333.9802 15.30624164233451
SENTINEL-6              
1 46984U 20086A   24322.72894214 -.00000042  00000+0  82168-4 0  9992
2 46984  66.0411 252.3610 0007809 270.3461  89.6660 12.80930648186491
GAOFEN-12 02            
1 48079U 21026A   24323.10685010  .00001017  00000+0  13876-3 0  9990
2 48079  97.9621 313.5584 0003838  39.3422 320.8068 14.80811888196525
PLEIADES NEO 3          
1 48268U 21034A   24323.13366459  .00002325  00000+0  30191-3 0  9997
2 48268  97.8948  35.1668 0000703  90.3680 269.7614 14.81675430192354
PLEIADES NEO 4          
1 49070U 21073E   24323.16742162  .00002266  00000+0  29448-3 0  9991
2 49070  97.8965  35.1961 0000822  96.5317 263.5989 14.81678430176079
LANDSAT 9               
1 49260U 21088A   24323.12839990  .00000806  00000+0  18910-3 0  9990
2 49260  98.2163  30.7630 0001307  84.4910 275.6437 14.57087918167107
CSG-2                   
1 51444U 22008A   24323.08529208  .00000844  00000+0  11256-3 0  9991
2 51444  97.8868 144.0103 0001365  91.6753 268.4616 14.82155278151255
GAOFEN-12 03            
1 52912U 22069A   24323.13837307  .00002898  00000+0  37706-3 0  9996
2 52912  97.8910 211.9041 0010037  33.2545 326.9297 14.81383423129395
SWOT                    
1 54754U 22173A   24322.92417913  .00000103  00000+0  71495-4 0  9992
2 54754  77.6096  93.2063 0000369 321.3447  38.7678 14.00167832 98500
GAOFEN-12 04            
1 57654U 23123A   24323.10458019  .00002624  00000+0  34295-3 0  9999
2 57654  97.9094 238.4203 0001568  49.2834 310.8514 14.81310591 67401
PARS 1                  
1 59065U 24039Q   24323.14240691  .00011017  00000+0  37445-3 0  9999
2 59065  97.4150 284.0786 0014397  33.2474 326.9668 15.30537263 40082
RESURS-P 4              
1 59371U 24061A   24323.12994138  .00006886  00000+0  20023-3 0  9996
2 59371  97.2064 272.2600 0001883  73.8135 286.3316 15.35757282 35520
LEGION 1                
1 59625U 24081A   24322.91622466  .00006984  00000+0  35410-3 0  9993
2 59625  97.5610  33.7703 0007793 218.7903 141.2771 15.17246697 30189
LEGION 2                
1 59626U 24081B   24322.88221270  .00008009  00000+0  40580-3 0  9992
2 59626  97.5611  33.8146 0005483 272.0229  88.0377 15.17233247 30188
ALOS-4 (DAICHI-4)       
1 60182U 24123A   24323.12953291  .00003602  00000+0  48903-3 0  9992
2 60182  97.9225  57.5702 0001457  99.5935 260.5442 14.79469016 20705
LEGION 3                
1 60452U 24146A   24323.16054151  .00022921  00000+0  57065-3 0  9992
2 60452  45.0002 242.3784 0027785 157.7513 202.4587 15.39526344 14575
LEGION 4                
1 60453U 24146B   24322.91062900  .00000758  00000+0  19811-3 0  9997
2 60453  45.0398 303.6514 0005050 273.1321  86.8957 14.57760452 13761
SENTINEL-2C             
1 60989U 24157A   24322.73929410  .00000292  00000+0  12812-3 0  9998
2 60989  98.5718  34.9049 0001108  93.0806 267.0503 14.30816642 10556
SARSAT 7 (NOAA 15)      
1 25338U 98030A   24323.10655469  .00000293  00000+0  13858-3 0  9992
2 25338  98.5559 346.9479 0009400 230.9194 129.1151 14.26798351379383
GPS BIIR-08             
1 27663U 03005A   24322.41546899  .00000007  00000+0  00000+0 0  9996
2 27663  55.0454 237.8999 0140671  48.3320  72.7179  2.00566045159742
GPS BIIR-11             
1 28190U 04009A   24322.73869116 -.00000053  00000+0  00000+0 0  9994
2 28190  55.3240 298.8968 0098514 155.0618 351.0005  2.00573433151383
GPS BIIR-13             
1 28474U 04045A   24322.69437698 -.00000090  00000+0  00000+0 0  9991
2 28474  55.3924 348.0635 0166170 296.7851 225.0143  2.00562735146865
SARSAT 10 (NOAA 18)     
1 28654U 05018A   24323.11655997  .00000344  00000+0  20630-3 0  9990
2 28654  98.8631  38.7277 0013862 350.8587   9.2331 14.13423227  5004
GPS BIIR-14M            
1 28874U 05038A   24322.86228712 -.00000050  00000+0  00000+0 0  9998
2 28874  55.3686 296.3579 0137163 286.9330 334.9705  2.00574974140270
METEOSAT-9 (MSG-2)      
1 28912U 05049B   24322.94565075  .00000127  00000+0  00000+0 0  9992
2 28912   8.0432  59.5386 0002153 194.1537 189.9197  1.00271754 69307
GOES 13                 
1 29155U 06018A   24323.18825854  .00000024  00000+0  00000+0 0  9996
2 29155   3.0280  83.4078 0063482 256.1990   4.3029  0.98830070 67682
GPS BIIR-16M            
1 29601U 06052A   24322.05775191  .00000009  00000+0  00000+0 0  9996
2 29601  55.0806 236.9026 0086316  83.8772 277.1453  2.00575990131833
GPS BIIR-17M            
1 32260U 07047A   24321.37030290  .00000006  00000+0  00000+0 0  9991
2 32260  53.6950 103.9453 0159541  78.7106 283.0504  2.00557018125224
GPS BIIR-18M            
1 32384U 07062A   24322.27055899 -.00000052  00000+0  00000+0 0  9999
2 32384  55.5119 297.2673 0027772 157.5919 260.7383  2.00555325123941
SARSAT 12 (NOAA 19)     
1 33591U 09005A   24323.16121776  .00000329  00000+0  19983-3 0  9996
2 33591  99.0280  20.4545 0013307 214.7562 145.2742 14.13202170813370
GOES 14                 
1 35491U 09033A   24322.62923196 -.00000061  00000+0  00000+0 0  9994
2 35491   0.1836  91.9862 0003469 116.6658 326.4847  1.00271897   810
GOES 15                 
1 36411U 10008A   24322.84007772  .00000039  00000+0  00000+0 0  9992
2 36411   0.1989 273.2633 0007379 330.7869 177.4039  1.00276359 53868
GSAT0101 (GALILEO-PFM)  
1 37846U 11060A   24321.06215764 -.00000086  00000+0  00000+0 0  9992
2 37846  57.1209 357.4268 0001956 303.3951  56.6470  1.70475634 81266
GSAT0102 (GALILEO-FM2)  
1 37847U 11060B   24322.28830182 -.00000090  00000+0  00000+0 0  9990
2 37847  57.1217 357.3937 0003954 299.4964 138.4611  1.70475175 81410
LUCH 5A                 
1 37951U 11074B   24322.68387979 -.00000044  00000+0  00000+0 0  9995
2 37951   7.2790  82.5393 0005106 149.8637 238.1473  1.00267794 47276
METEOSAT-10 (MSG-3)     
1 38552U 12035B   24322.86519941 -.00000001  00000+0  00000+0 0  9990
2 38552   3.3167  61.7433 0001639 225.3208  81.9252  1.00274935 45074
SARSAT 13 (METOP-B)     
1 38771U 12049A   24323.11160923  .00000267  00000+0  14160-3 0  9998
2 38771  98.6084  16.7323 0001128  79.1113 281.0191 14.21587207631413
GPS BIIF-3              
1 38833U 12053A   24321.96619860  .00000065  00000+0  00000+0 0  9992
2 38833  53.5211 167.2258 0160836  58.6052 303.0387  2.00560692 87868
GSAT0103 (GALILEO-FM3)  
1 38857U 12055A   24321.10151763  .00000043  00000+0  00000+0 0  9995
2 38857  55.4781 117.4288 0002195 248.2730 111.6845  1.70473442 75153
GPS BIIF-4              
1 39166U 13023A   24322.32670633 -.00000049  00000+0  00000+0 0  9999
2 39166  54.9825 292.3995 0126926  45.0526 315.9501  2.00562248 84316
INSAT-3D                
1 39216U 13038B   24323.04146788 -.00000335  00000+0  00000+0 0  9998
2 39216   0.4316  90.7442 0002203 170.2843 301.0126  1.00271314 41529
GPS BIIF-5              
1 39533U 14008A   24322.82133114  .00000052  00000+0  00000+0 0  9997
2 39533  53.6014 172.8115 0072915 220.2819 139.2550  2.00550926 78129
LUCH 5V                 
1 39727U 14023A   24322.95546826 -.00000265  00000+0  00000+0 0  9998
2 39727   3.6862  74.8748 0004619 188.3878 232.9568  1.00271708556733
GPS BIIF-6              
1 39741U 14026A   24323.10437208 -.00000092  00000+0  00000+0 0  9996
2 39741  56.6929 353.9032 0034524 313.2581  46.5043  2.00557291 76971
GPS BIIF-7              
1 40105U 14045A   24322.69074453  .00000016  00000+0  00000+0 0  9990
2 40105  55.0047 111.4734 0029799 117.3265 242.9545  2.00576393 74518
GSAT0201 (GALILEO 5)    
1 40128U 14050A   24317.84894513 -.00000064  00000+0  00000+0 0  9993
2 40128  49.5062 297.0773 1615021 157.0418 211.0891  1.85519421 67539
GSAT0202 (GALILEO 6)    
1 40129U 14050B   24319.72364869 -.00000074  00000+0  00000+0 0  9990
2 40129  49.5202 296.0806 1614398 157.9045 209.9391  1.85520091 69733
GPS BIIF-8              
1 40294U 14068A   24322.56970682 -.00000070  00000+0  00000+0 0  9990
2 40294  56.5515  53.2678 0054501  65.4843 295.0969  2.00569497 73646
GLONASS-K 2             
1 40315U 14075A   24323.05032871  .00000036  00000+0  00000+0 0  9997
2 40315  63.6161 210.3326 0019410 206.0016 153.9843  2.13101347 77576
GPS BIIF-9              
1 40534U 15013A   24322.20297905  .00000016  00000+0  00000+0 0  9998
2 40534  53.2938 228.0592 0094428  32.1059 328.5240  2.00556332 70257
GSAT0203 (GALILEO 7)    
1 40544U 15017A   24322.01417229 -.00000090  00000+0  00000+0 0  9998
2 40544  56.9156 357.3141 0005938 258.4457 101.5454  1.70475957 59363
GSAT0204 (GALILEO 8)    
1 40545U 15017B   24321.68221697 -.00000089  00000+0  00000+0 0  9991
2 40545  56.9220 357.3393 0005767 249.1376 110.8595  1.70475337 22408
GPS BIIF-10             
1 40730U 15033A   24322.36421389 -.00000048  00000+0  00000+0 0  9996
2 40730  54.4640 290.7956 0099017  20.4895 339.8837  2.00559050 68428
METEOSAT-11 (MSG-4)     
1 40732U 15034A   24322.86702390  .00000067  00000+0  00000+0 0  9998
2 40732   1.7596  71.3554 0001283 182.1349 125.3178  1.00275175  1436
GSAT0205 (GALILEO 9)    
1 40889U 15045A   24321.45059396 -.00000004  00000+0  00000+0 0  9990
2 40889  55.1520 237.5651 0004912  25.5321 334.5273  1.70472870 57164
